CCSDS_OMM_VERS = 2.0
CREATION_DATE  = 
ORIGINATOR     = 

OBJECT_NAME    = HULIANWANG DIGUI-141
OBJECT_ID      = 2026-007E
CENTER_NAME    = EARTH
REF_FRAME      = TEME
TIME_SYSTEM    = UTC
MEAN_ELEMENT_THEORY = SGP/SGP4

EPOCH          = 2026-01-31T14:11:30.746112
MEAN_MOTION    = 13.83477078
ECCENTRICITY   = .00008481
INCLINATION    = 49.9978
RA_OF_ASC_NODE = 223.0465
ARG_OF_PERICENTER = 110.8917
MEAN_ANOMALY   = 249.2070

EPHEMERIS_TYPE = 0
CLASSIFICATION_TYPE = U
NORAD_CAT_ID   = 67439
ELEMENT_SET_NO = 999
REV_AT_EPOCH   = 250
BSTAR          = .15542227E-3
MEAN_MOTION_DOT = .28E-6
MEAN_MOTION_DDOT = 0

CCSDS_OMM_VERS = 2.0
CREATION_DATE  = 
ORIGINATOR     = 

OBJECT_NAME    = HULIANWANG DIGUI-142
OBJECT_ID      = 2026-007F
CENTER_NAME    = EARTH
REF_FRAME      = TEME
TIME_SYSTEM    = UTC
MEAN_ELEMENT_THEORY = SGP/SGP4

EPOCH          = 2026-01-31T21:03:57.417696
MEAN_MOTION    = 13.83208557
ECCENTRICITY   = .00010476
INCLINATION    = 50.0175
RA_OF_ASC_NODE = 221.9246
ARG_OF_PERICENTER = 31.4486
MEAN_ANOMALY   = 328.6472

EPHEMERIS_TYPE = 0
CLASSIFICATION_TYPE = U
NORAD_CAT_ID   = 67440
ELEMENT_SET_NO = 999
REV_AT_EPOCH   = 254
BSTAR          = .17140135E-4
MEAN_MOTION_DOT = -.125E-5
MEAN_MOTION_DDOT = 0

CCSDS_OMM_VERS = 2.0
CREATION_DATE  = 
ORIGINATOR     = 

OBJECT_NAME    = HULIANWANG DIGUI-143
OBJECT_ID      = 2026-007G
CENTER_NAME    = EARTH
REF_FRAME      = TEME
TIME_SYSTEM    = UTC
MEAN_ELEMENT_THEORY = SGP/SGP4

EPOCH          = 2026-01-31T14:04:24.890016
MEAN_MOTION    = 13.83872752
ECCENTRICITY   = .00010017
INCLINATION    = 50.0093
RA_OF_ASC_NODE = 223.0431
ARG_OF_PERICENTER = 325.2229
MEAN_ANOMALY   = 34.8601

EPHEMERIS_TYPE = 0
CLASSIFICATION_TYPE = U
NORAD_CAT_ID   = 67441
ELEMENT_SET_NO = 999
REV_AT_EPOCH   = 250
BSTAR          = .15216351E-3
MEAN_MOTION_DOT = .26E-6
MEAN_MOTION_DDOT = 0

CCSDS_OMM_VERS = 2.0
CREATION_DATE  = 
ORIGINATOR     = 

OBJECT_NAME    = HULIANWANG DIGUI-144
OBJECT_ID      = 2026-007H
CENTER_NAME    = EARTH
REF_FRAME      = TEME
TIME_SYSTEM    = UTC
MEAN_ELEMENT_THEORY = SGP/SGP4

EPOCH          = 2026-01-31T14:01:13.993536
MEAN_MOTION    = 13.84034518
ECCENTRICITY   = .00051728
INCLINATION    = 50.0080
RA_OF_ASC_NODE = 223.0330
ARG_OF_PERICENTER = 307.2161
MEAN_ANOMALY   = 52.8262

EPHEMERIS_TYPE = 0
CLASSIFICATION_TYPE = U
NORAD_CAT_ID   = 67442
ELEMENT_SET_NO = 999
REV_AT_EPOCH   = 250
BSTAR          = .13836023E-3
MEAN_MOTION_DOT = .11E-6
MEAN_MOTION_DDOT = 0

CCSDS_OMM_VERS = 2.0
CREATION_DATE  = 
ORIGINATOR     = 

OBJECT_NAME    = HULIANWANG DIGUI-145
OBJECT_ID      = 2026-007J
CENTER_NAME    = EARTH
REF_FRAME      = TEME
TIME_SYSTEM    = UTC
MEAN_ELEMENT_THEORY = SGP/SGP4

EPOCH          = 2026-01-31T08:45:14.271264
MEAN_MOTION    = 13.84763079
ECCENTRICITY   = .00009105
INCLINATION    = 50.0089
RA_OF_ASC_NODE = 223.8640
ARG_OF_PERICENTER = 227.8160
MEAN_ANOMALY   = 132.2659

EPHEMERIS_TYPE = 0
CLASSIFICATION_TYPE = U
NORAD_CAT_ID   = 67443
ELEMENT_SET_NO = 999
REV_AT_EPOCH   = 247
BSTAR          = .16076174E-3
MEAN_MOTION_DOT = .38E-6
MEAN_MOTION_DDOT = 0

CCSDS_OMM_VERS = 2.0
CREATION_DATE  = 
ORIGINATOR     = 

OBJECT_NAME    = CZ-8A R/B
OBJECT_ID      = 2026-007K
CENTER_NAME    = EARTH
REF_FRAME      = TEME
TIME_SYSTEM    = UTC
MEAN_ELEMENT_THEORY = SGP/SGP4

EPOCH          = 2026-01-31T23:57:57.199680
MEAN_MOTION    = 14.13550591
ECCENTRICITY   = .00921718
INCLINATION    = 50.0084
RA_OF_ASC_NODE = 218.5235
ARG_OF_PERICENTER = 146.0178
MEAN_ANOMALY   = 214.6680

EPHEMERIS_TYPE = 0
CLASSIFICATION_TYPE = U
NORAD_CAT_ID   = 67444
ELEMENT_SET_NO = 999
REV_AT_EPOCH   = 259
BSTAR          = .12562489E-4
MEAN_MOTION_DOT = -.131E-5
MEAN_MOTION_DDOT = 0

CCSDS_OMM_VERS = 2.0
CREATION_DATE  = 
ORIGINATOR     = 

OBJECT_NAME    = STARLINK-36542
OBJECT_ID      = 2026-008A
CENTER_NAME    = EARTH
REF_FRAME      = TEME
TIME_SYSTEM    = UTC
MEAN_ELEMENT_THEORY = SGP/SGP4

EPOCH          = 2026-02-01T06:00:02.000160
MEAN_MOTION    = 15.75053859
ECCENTRICITY   = .0001172
INCLINATION    = 42.9999
RA_OF_ASC_NODE = 54.6451
ARG_OF_PERICENTER = 272.8078
MEAN_ANOMALY   = 235.5441

EPHEMERIS_TYPE = 0
CLASSIFICATION_TYPE = U
NORAD_CAT_ID   = 67445
ELEMENT_SET_NO = 999
REV_AT_EPOCH   = 393
BSTAR          = -.264927E-3
MEAN_MOTION_DOT = -.40999E-3
MEAN_MOTION_DDOT = 0

CCSDS_OMM_VERS = 2.0
CREATION_DATE  = 
ORIGINATOR     = 

OBJECT_NAME    = STARLINK-36539
OBJECT_ID      = 2026-008B
CENTER_NAME    = EARTH
REF_FRAME      = TEME
TIME_SYSTEM    = UTC
MEAN_ELEMENT_THEORY = SGP/SGP4

EPOCH          = 2026-02-01T06:00:02.000160
MEAN_MOTION    = 15.75090818
ECCENTRICITY   = .00013005
INCLINATION    = 42.9999
RA_OF_ASC_NODE = 54.6401
ARG_OF_PERICENTER = 272.7815
MEAN_ANOMALY   = 237.4736

EPHEMERIS_TYPE = 0
CLASSIFICATION_TYPE = U
NORAD_CAT_ID   = 67446
ELEMENT_SET_NO = 999
REV_AT_EPOCH   = 393
BSTAR          = -.7118819E-3
MEAN_MOTION_DOT = -.108674E-2
MEAN_MOTION_DDOT = 0

CCSDS_OMM_VERS = 2.0
CREATION_DATE  = 
ORIGINATOR     = 

OBJECT_NAME    = STARLINK-36440
OBJECT_ID      = 2026-008C
CENTER_NAME    = EARTH
REF_FRAME      = TEME
TIME_SYSTEM    = UTC
MEAN_ELEMENT_THEORY = SGP/SGP4

EPOCH          = 2026-02-01T06:00:02.000160
MEAN_MOTION    = 15.75082594
ECCENTRICITY   = .00013516
INCLINATION    = 42.9999
RA_OF_ASC_NODE = 54.6359
ARG_OF_PERICENTER = 266.9977
MEAN_ANOMALY   = 245.1808

EPHEMERIS_TYPE = 0
CLASSIFICATION_TYPE = U
NORAD_CAT_ID   = 67447
ELEMENT_SET_NO = 999
REV_AT_EPOCH   = 393
BSTAR          = -.56762148E-3
MEAN_MOTION_DOT = -.86939E-3
MEAN_MOTION_DDOT = 0

CCSDS_OMM_VERS = 2.0
CREATION_DATE  = 
ORIGINATOR     = 

OBJECT_NAME    = STARLINK-36423
OBJECT_ID      = 2026-008D
CENTER_NAME    = EARTH
REF_FRAME      = TEME
TIME_SYSTEM    = UTC
MEAN_ELEMENT_THEORY = SGP/SGP4

EPOCH          = 2026-02-01T06:00:02.000160
MEAN_MOTION    = 15.75200241
ECCENTRICITY   = .00011007
INCLINATION    = 43.0000
RA_OF_ASC_NODE = 54.6302
ARG_OF_PERICENTER = 272.0638
MEAN_ANOMALY   = 242.0149

EPHEMERIS_TYPE = 0
CLASSIFICATION_TYPE = U
NORAD_CAT_ID   = 67448
ELEMENT_SET_NO = 999
REV_AT_EPOCH   = 393
BSTAR          = -.15546008E-1
MEAN_MOTION_DOT = -.2109485E-1
MEAN_MOTION_DDOT = 0

CCSDS_OMM_VERS = 2.0
CREATION_DATE  = 
ORIGINATOR     = 

OBJECT_NAME    = STARLINK-36519
OBJECT_ID      = 2026-008E
CENTER_NAME    = EARTH
REF_FRAME      = TEME
TIME_SYSTEM    = UTC
MEAN_ELEMENT_THEORY = SGP/SGP4

EPOCH          = 2026-02-01T06:00:02.000160
MEAN_MOTION    = 15.75079259
ECCENTRICITY   = .00012597
INCLINATION    = 42.9999
RA_OF_ASC_NODE = 54.6252
ARG_OF_PERICENTER = 263.8483
MEAN_ANOMALY   = 252.1533

EPHEMERIS_TYPE = 0
CLASSIFICATION_TYPE = U
NORAD_CAT_ID   = 67449
ELEMENT_SET_NO = 999
REV_AT_EPOCH   = 393
BSTAR          = -.49019907E-3
MEAN_MOTION_DOT = -.75237E-3
MEAN_MOTION_DDOT = 0

CCSDS_OMM_VERS = 2.0
CREATION_DATE  = 
ORIGINATOR     = 

OBJECT_NAME    = STARLINK-36525
OBJECT_ID      = 2026-008F
CENTER_NAME    = EARTH
REF_FRAME      = TEME
TIME_SYSTEM    = UTC
MEAN_ELEMENT_THEORY = SGP/SGP4

EPOCH          = 2026-02-01T06:00:02.000160
MEAN_MOTION    = 15.75053914
ECCENTRICITY   = .00017509
INCLINATION    = 42.9999
RA_OF_ASC_NODE = 54.6199
ARG_OF_PERICENTER = 273.9022
MEAN_ANOMALY   = 244.0225

EPHEMERIS_TYPE = 0
CLASSIFICATION_TYPE = U
NORAD_CAT_ID   = 67450
ELEMENT_SET_NO = 999
REV_AT_EPOCH   = 393
BSTAR          = -.20932236E-3
MEAN_MOTION_DOT = -.32529E-3
MEAN_MOTION_DDOT = 0

CCSDS_OMM_VERS = 2.0
CREATION_DATE  = 
ORIGINATOR     = 

OBJECT_NAME    = STARLINK-36511
OBJECT_ID      = 2026-008G
CENTER_NAME    = EARTH
REF_FRAME      = TEME
TIME_SYSTEM    = UTC
MEAN_ELEMENT_THEORY = SGP/SGP4

EPOCH          = 2026-02-01T06:00:02.000160
MEAN_MOTION    = 15.75386491
ECCENTRICITY   = .00009761
INCLINATION    = 42.9998
RA_OF_ASC_NODE = 54.6161
ARG_OF_PERICENTER = 272.3481
MEAN_ANOMALY   = 247.4659

EPHEMERIS_TYPE = 0
CLASSIFICATION_TYPE = U
NORAD_CAT_ID   = 67451
ELEMENT_SET_NO = 999
REV_AT_EPOCH   = 393
BSTAR          = -.14576887E-1
MEAN_MOTION_DOT = -.2007905E-1
MEAN_MOTION_DDOT = 0

CCSDS_OMM_VERS = 2.0
CREATION_DATE  = 
ORIGINATOR     = 

OBJECT_NAME    = STARLINK-36524
OBJECT_ID      = 2026-008H
CENTER_NAME    = EARTH
REF_FRAME      = TEME
TIME_SYSTEM    = UTC
MEAN_ELEMENT_THEORY = SGP/SGP4

EPOCH          = 2026-02-01T06:00:02.000160
MEAN_MOTION    = 15.75064478
ECCENTRICITY   = .00013888
INCLINATION    = 42.9999
RA_OF_ASC_NODE = 54.6099
ARG_OF_PERICENTER = 271.0271
MEAN_ANOMALY   = 250.7304

EPHEMERIS_TYPE = 0
CLASSIFICATION_TYPE = U
NORAD_CAT_ID   = 67452
ELEMENT_SET_NO = 999
REV_AT_EPOCH   = 393
BSTAR          = -.35287444E-3
MEAN_MOTION_DOT = -.54393E-3
MEAN_MOTION_DDOT = 0

CCSDS_OMM_VERS = 2.0
CREATION_DATE  = 
ORIGINATOR     = 

OBJECT_NAME    = STARLINK-36518
OBJECT_ID      = 2026-008J
CENTER_NAME    = EARTH
REF_FRAME      = TEME
TIME_SYSTEM    = UTC
MEAN_ELEMENT_THEORY = SGP/SGP4

EPOCH          = 2026-02-01T06:00:02.000160
MEAN_MOTION    = 15.75077143
ECCENTRICITY   = .00013111
INCLINATION    = 42.9990
RA_OF_ASC_NODE = 54.2414
ARG_OF_PERICENTER = 274.7567
MEAN_ANOMALY   = 31.6763

EPHEMERIS_TYPE = 0
CLASSIFICATION_TYPE = U
NORAD_CAT_ID   = 67453
ELEMENT_SET_NO = 999
REV_AT_EPOCH   = 395
BSTAR          = -.58794719E-3
MEAN_MOTION_DOT = -.89981E-3
MEAN_MOTION_DDOT = 0

